{"type": "FeatureCollection", "features": [ {"type": "Feature", "properties": {"norad_id": 33870, "name": "IRIDIUM 33 DEB", "group": "iridium-33-debris", "lat": -61.66693083866107, "lon": -121.26679780245641, "alt_km": 751.7917705099635, "timestamp": "2025-12-27T09:28:56.862226+00:00", "meta": {"OBJECT_NAME": "IRIDIUM 33 DEB", "OBJECT_ID": "1997-051AP", "EPOCH": "2025-12-27T03:37:52.381344", "MEAN_MOTION": 14.45923105, "ECCENTRICITY": 0.0022803, "INCLINATION": 86.3732, "RA_OF_ASC_NODE": 52.0823, "ARG_OF_PERICENTER": 132.5551, "MEAN_ANOMALY": 280.7612, "EPHEMERIS_TYPE": 0, "CLASSIFICATION_TYPE": "U", "NORAD_CAT_ID": 33870, "ELEMENT_SET_NO": 999, "REV_AT_EPOCH": 88345, "BSTAR": 0.00078633, "MEAN_MOTION_DOT": 2.824e-05, "MEAN_MOTION_DDOT": 0}, "tle": {"line1": "1 33870U 97051AP  25361.15130071  .00002824  00000+0  78633-3 0  9993", "line2": "2 33870  86.3732  52.0823 0022803 132.5551 280.7612 14.45923105883457"}}, "geometry": {"type": "Point", "coordinates": [-121.26679780245641, -61.66693083866107]}}, {"type": "Feature", "properties": {"norad_id": 33881, "name": "IRIDIUM 33 DEB", "group": "iridium-33-debris", "lat": -40.514333739638644, "lon": 97.2758242178652, "alt_km": 752.237578838326, "timestamp": "2025-12-27T09:28:56.862237+00:00", "meta": {"OBJECT_NAME": "IRIDIUM 33 DEB", "OBJECT_ID": "1997-051BA", "EPOCH": "2025-12-26T19:24:14.995296", "MEAN_MOTION": 14.56833072, "ECCENTRICITY": 0.00610489, "INCLINATION": 86.3854, "RA_OF_ASC_NODE": 100.6273, "ARG_OF_PERICENTER": 129.1148, "MEAN_ANOMALY": 356.0347, "EPHEMERIS_TYPE": 0, "CLASSIFICATION_TYPE": "U", "NORAD_CAT_ID": 33881, "ELEMENT_SET_NO": 999, "REV_AT_EPOCH": 87705, "BSTAR": 0.0021984716, "MEAN_MOTION_DOT": 0.00010127, "MEAN_MOTION_DDOT": 0}, "tle": {"line1": "1 33881U 97051BA  25360.80850689  .00010127  00000+0  21985-2 0  9992", "line2": "2 33881  86.3854 100.6273 0061048 129.1148 356.0347 14.56833072877057"}}, "geometry": {"type": "Point", "coordinates": [97.2758242178652, -40.514333739638644]}}, {"type": "Feature", "properties": {"norad_id": 33884, "name": "IRIDIUM 33 DEB", "group": "iridium-33-debris", "lat": -73.96799318746024, "lon": -9.557042476998802, "alt_km": 638.0889430013995, "timestamp": "2025-12-27T09:28:56.862249+00:00", "meta": {"OBJECT_NAME": "IRIDIUM 33 DEB", "OBJECT_ID": "1997-051BD", "EPOCH": "2025-12-27T00:11:41.738208", "MEAN_MOTION": 14.77722532, "ECCENTRICITY": 0.0008781, "INCLINATION": 86.3712, "RA_OF_ASC_NODE": 3.3767, "ARG_OF_PERICENTER": 267.5754, "MEAN_ANOMALY": 120.7398, "EPHEMERIS_TYPE": 0, "CLASSIFICATION_TYPE": "U", "NORAD_CAT_ID": 33884, "ELEMENT_SET_NO": 999, "REV_AT_EPOCH": 89058, "BSTAR": 0.0018566, "MEAN_MOTION_DOT": 0.00013349, "MEAN_MOTION_DDOT": 0}, "tle": {"line1": "1 33884U 97051BD  25361.00812197  .00013349  00000+0  18566-2 0  9990", "line2": "2 33884  86.3712   3.3767 0008781 267.5754 120.7398 14.77722532890581"}}, "geometry": {"type": "Point", "coordinates": [-9.557042476998802, -73.96799318746024]}}, {"type": "Feature", "properties": {"norad_id": 33886, "name": "IRIDIUM 33 DEB", "group": "iridium-33-debris", "lat": -4.597626611485322, "lon": -118.64895767577995, "alt_km": 765.3845045750695, "timestamp": "2025-12-27T09:28:56.862259+00:00", "meta": {"OBJECT_NAME": "IRIDIUM 33 DEB", "OBJECT_ID": "1997-051BF", "EPOCH": "2025-12-27T03:52:21.168768", "MEAN_MOTION": 14.36068773, "ECCENTRICITY": 0.0013721, "INCLINATION": 86.3818, "RA_OF_ASC_NODE": 61.1579, "ARG_OF_PERICENTER": 190.8914, "MEAN_ANOMALY": 225.9418, "EPHEMERIS_TYPE": 0, "CLASSIFICATION_TYPE": "U", "NORAD_CAT_ID": 33886, "ELEMENT_SET_NO": 999, "REV_AT_EPOCH": 88259, "BSTAR": 0.00021198, "MEAN_MOTION_DOT": 6.37e-06, "MEAN_MOTION_DDOT": 0}, "tle": {"line1": "1 33886U 97051BF  25361.16135612  .00000637  00000+0  21198-3 0  9991", "line2": "2 33886  86.3818  61.1579 0013721 190.8914 225.9418 14.36068773882597"}}, "geometry": {"type": "Point", "coordinates": [-118.64895767577995, -4.597626611485322]}}, {"type": "Feature", "properties": {"norad_id": 33887, "name": "IRIDIUM 33 DEB", "group": "iridium-33-debris", "lat": -2.4068104312049066, "lon": 177.231710433627, "alt_km": 766.7852454403801, "timestamp": "2025-12-27T09:28:56.862270+00:00", "meta": {"OBJECT_NAME": "IRIDIUM 33 DEB", "OBJECT_ID": "1997-051BG", "EPOCH": "2025-12-27T00:31:57.063936", "MEAN_MOTION": 14.372341, "ECCENTRICITY": 0.000601, "INCLINATION": 86.3043, "RA_OF_ASC_NODE": 357.2367, "ARG_OF_PERICENTER": 173.3185, "MEAN_ANOMALY": 240.7076, "EPHEMERIS_TYPE": 0, "CLASSIFICATION_TYPE": "U", "NORAD_CAT_ID": 33887, "ELEMENT_SET_NO": 999, "REV_AT_EPOCH": 88370, "BSTAR": 0.00017797, "MEAN_MOTION_DOT": 5.5e-06, "MEAN_MOTION_DDOT": 0}, "tle": {"line1": "1 33887U 97051BG  25361.02218824  .00000550  00000+0  17797-3 0  9998", "line2": "2 33887  86.3043 357.2367 0006010 173.3185 240.7076 14.37234100883700"}}, "geometry": {"type": "Point", "coordinates": [177.231710433627, -2.4068104312049066]}}, {"type": "Feature", "properties": {"norad_id": 33953, "name": "IRIDIUM 33 DEB", "group": "iridium-33-debris", "lat": -84.18613412269399, "lon": 9.017304516268828, "alt_km": 725.1695779756246, "timestamp": "2025-12-27T09:28:56.862281+00:00", "meta": {"OBJECT_NAME": "IRIDIUM 33 DEB", "OBJECT_ID": "1997-051BN", "EPOCH": "2025-12-27T03:31:11.628768", "MEAN_MOTION": 14.55459047, "ECCENTRICITY": 0.0017398, "INCLINATION": 86.3835, "RA_OF_ASC_NODE": 47.5249, "ARG_OF_PERICENTER": 58.4623, "MEAN_ANOMALY": 355.3188, "EPHEMERIS_TYPE": 0, "CLASSIFICATION_TYPE": "U", "NORAD_CAT_ID": 33953, "ELEMENT_SET_NO": 999, "REV_AT_EPOCH": 88513, "BSTAR": 0.0012769, "MEAN_MOTION_DOT": 5.584e-05, "MEAN_MOTION_DDOT": 0}, "tle": {"line1": "1 33953U 97051BN  25361.14666237  .00005584  00000+0  12769-2 0  9995", "line2": "2 33953  86.3835  47.5249 0017398  58.4623 355.3188 14.55459047885137"}}, "geometry": {"type": "Point", "coordinates": [9.017304516268828, -84.18613412269399]}}, {"type": "Feature", "properties": {"norad_id": 33960, "name": "IRIDIUM 33 DEB", "group": "iridium-33-debris", "lat": -47.859572821375416, "lon": 106.75468628495882, "alt_km": 622.3199109158759, "timestamp": "2025-12-27T09:28:56.862292+00:00", "meta": {"OBJECT_NAME": "IRIDIUM 33 DEB", "OBJECT_ID": "1997-051BV", "EPOCH": "2025-12-26T19:47:13.318944", "MEAN_MOTION": 14.85911573, "ECCENTRICITY": 0.00069591, "INCLINATION": 86.2536, "RA_OF_ASC_NODE": 282.8713, "ARG_OF_PERICENTER": 37.5065, "MEAN_ANOMALY": 19.8748, "EPHEMERIS_TYPE": 0, "CLASSIFICATION_TYPE": "U", "NORAD_CAT_ID": 33960, "ELEMENT_SET_NO": 999, "REV_AT_EPOCH": 89076, "BSTAR": 0.0032209433, "MEAN_MOTION_DOT": 0.00028197, "MEAN_MOTION_DDOT": 0}, "tle": {"line1": "1 33960U 97051BV  25360.82445971  .00028197  00000+0  32209-2 0  9993", "line2": "2 33960  86.2536 282.8713 0006959  37.5065  19.8748 14.85911573890760"}}, "geometry": {"type": "Point", "coordinates": [106.75468628495882, -47.859572821375416]}}, {"type": "Feature", "properties": {"norad_id": 33966, "name": "IRIDIUM 33 DEB", "group": "iridium-33-debris", "lat": 82.39866082381943, "lon": -168.4880353290148, "alt_km": 715.0324801560437, "timestamp": "2025-12-27T09:28:56.862302+00:00", "meta": {"OBJECT_NAME": "IRIDIUM 33 DEB", "OBJECT_ID": "1997-051CB", "EPOCH": "2025-12-27T02:41:52.154880", "MEAN_MOTION": 14.49650028, "ECCENTRICITY": 0.0008949, "INCLINATION": 86.391, "RA_OF_ASC_NODE": 39.858, "ARG_OF_PERICENTER": 144.2354, "MEAN_ANOMALY": 278.1615, "EPHEMERIS_TYPE": 0, "CLASSIFICATION_TYPE": "U", "NORAD_CAT_ID": 33966, "ELEMENT_SET_NO": 999, "REV_AT_EPOCH": 88650, "BSTAR": 0.00056096, "MEAN_MOTION_DOT": 2.176e-05, "MEAN_MOTION_DDOT": 0}, "tle": {"line1": "1 33966U 97051CB  25361.11240920  .00002176  00000+0  56096-3 0  9999", "line2": "2 33966  86.3910  39.8580 0008949 144.2354 278.1615 14.49650028886508"}}, "geometry": {"type": "Point", "coordinates": [-168.4880353290148, 82.39866082381943]}}, {"type": "Feature", "properties": {"norad_id": 34071, "name": "IRIDIUM 33 DEB", "group": "iridium-33-debris", "lat": 23.196050804275224, "lon": -170.11202746070083, "alt_km": 726.6392401044477, "timestamp": "2025-12-27T09:28:56.862313+00:00", "meta": {"OBJECT_NAME": "IRIDIUM 33 DEB", "OBJECT_ID": "1997-051CE", "EPOCH": "2025-12-27T02:08:09.669120", "MEAN_MOTION": 14.49529648, "ECCENTRICITY": 0.0009785, "INCLINATION": 86.3454, "RA_OF_ASC_NODE": 11.5904, "ARG_OF_PERICENTER": 69.1445, "MEAN_ANOMALY": 291.0806, "EPHEMERIS_TYPE": 0, "CLASSIFICATION_TYPE": "U", "NORAD_CAT_ID": 34071, "ELEMENT_SET_NO": 999, "REV_AT_EPOCH": 88542, "BSTAR": 0.00073604, "MEAN_MOTION_DOT": 2.842e-05, "MEAN_MOTION_DDOT": 0}, "tle": {"line1": "1 34071U 97051CE  25361.08900080  .00002842  00000+0  73604-3 0  9997", "line2": "2 34071  86.3454  11.5904 0009785  69.1445 291.0806 14.49529648885420"}}, "geometry": {"type": "Point", "coordinates": [-170.11202746070083, 23.196050804275224]}}, {"type": "Feature", "properties": {"norad_id": 34077, "name": "IRIDIUM 33 DEB", "group": "iridium-33-debris", "lat": 86.03389389270879, "lon": 159.2866543157914, "alt_km": 670.6276536721971, "timestamp": "2025-12-27T09:28:56.862324+00:00", "meta": {"OBJECT_NAME": "IRIDIUM 33 DEB", "OBJECT_ID": "1997-051CL", "EPOCH": "2025-12-27T02:47:01.299264", "MEAN_MOTION": 14.65029406, "ECCENTRICITY": 0.0008536, "INCLINATION": 86.3849, "RA_OF_ASC_NODE": 45.1729, "ARG_OF_PERICENTER": 351.6698, "MEAN_ANOMALY": 68.7285, "EPHEMERIS_TYPE": 0, "CLASSIFICATION_TYPE": "U", "NORAD_CAT_ID": 34077, "ELEMENT_SET_NO": 999, "REV_AT_EPOCH": 88543, "BSTAR": 0.0019034, "MEAN_MOTION_DOT": 0.00010235, "MEAN_MOTION_DDOT": 0}, "tle": {"line1": "1 34077U 97051CL  25361.11598726  .00010235  00000+0  19034-2 0  9998", "line2": "2 34077  86.3849  45.1729 0008536 351.6698  68.7285 14.65029406885430"}}, "geometry": {"type": "Point", "coordinates": [159.2866543157914, 86.03389389270879]}}]}